ONEWEB-0216             
1 48801U 21045AL  24098.91489805 -.00000148  00000+0 -42806-3 0  9997
2 48801  87.9008  58.4675 0001809  73.1533 286.9796 13.15548449139082
ONEWEB-0239             
1 48802U 21045AM  24099.14780856 -.00000164  00000+0 -47066-3 0  9995
2 48802  87.9017  58.3905 0001352 113.5563 246.5710 13.15545652140299
ONEWEB-0249             
1 48967U 21060A   24099.33609263  .00000094  00000+0  21274-3 0  9990
2 48967  87.9147  27.9661 0001913  78.6912 281.4434 13.16592595135652
ONEWEB-0250             
1 48968U 21060B   24099.49283226  .00000071  00000+0  15116-3 0  9998
2 48968  87.9147  27.9187 0001652  87.2090 272.9230 13.16597393135659
ONEWEB-0252             
1 48970U 21060D   24099.21576666 -.00000079  00000+0 -23937-3 0  9994
2 48970  87.9146  27.9831 0001799  73.6422 286.4906 13.16595990135681
ONEWEB-0253             
1 48971U 21060E   24099.20466802 -.00000047  00000+0 -15568-3 0  9990
2 48971  87.9147  27.9990 0001573  78.5052 281.6256 13.16591958135609
ONEWEB-0254             
1 48972U 21060F   24099.51816066 -.00000269  00000+0 -73660-3 0  9999
2 48972  87.9146  27.9131 0001527  78.8378 281.2924 13.16594140135647
ONEWEB-0255             
1 48973U 21060G   24099.55616497 -.00000053  00000+0 -17324-3 0  9996
2 48973  87.9147  27.9406 0001854  81.1572 278.9769 13.16596525135739
